[{"OBJECT_NAME":"STARLINK-34468","OBJECT_ID":"2025-129N","EPOCH":"2026-03-09T10:22:07.264992","MEAN_MOTION":14.98335708,"ECCENTRICITY":0.00034178,"INCLINATION":70.0009,"RA_OF_ASC_NODE":75.3087,"ARG_OF_PERICENTER":270.1847,"MEAN_ANOMALY":89.8921,"EPHEMERIS_TYPE":0,"CLASSIFICATION_TYPE":"U","NORAD_CAT_ID":64424,"ELEMENT_SET_NO":999,"REV_AT_EPOCH":4124,"BSTAR":0.0002237769,"MEAN_MOTION_DOT":2.578e-5,"MEAN_MOTION_DDOT":0},{"OBJECT_NAME":"COSMOS 2251 DEB","OBJECT_ID":"1993-036NZ","EPOCH":"2026-03-09T21:15:03.836448","MEAN_MOTION":14.91859868,"ECCENTRICITY":0.00323485,"INCLINATION":73.9961,"RA_OF_ASC_NODE":356.9153,"ARG_OF_PERICENTER":157.6141,"MEAN_ANOMALY":263.4728,"EPHEMERIS_TYPE":0,"CLASSIFICATION_TYPE":"U","NORAD_CAT_ID":34327,"ELEMENT_SET_NO":999,"REV_AT_EPOCH":90806,"BSTAR":0.0014341536,"MEAN_MOTION_DOT":0.00014628,"MEAN_MOTION_DDOT":0}]
